[
  {
    "OBJECT_NAME": "NUSAT-8 (MARIE)",
    "OBJECT_ID": "2020-003C",
    "EPOCH": "2020-12-29T03:57:59.406624",
    "MEAN_MOTION": 15.27989249,
    "ECCENTRICITY": 0.0013356,
    "INCLINATION": 97.297,
    "RA_OF_ASC_NODE": 66.4161,
    "ARG_OF_PERICENTER": 110.6345,
    "MEAN_ANOMALY": 334.7107,
    "EPHEMERIS_TYPE": 0,
    "CLASSIFICATION_TYPE": "U",
    "NORAD_CAT_ID": 45018,
    "ELEMENT_SET_NO": 999,
    "REV_AT_EPOCH": 5327,
    "BSTAR": 0.000084553,
    "MEAN_MOTION_DOT": 0.00002241,
    "MEAN_MOTION_DDOT": 0
  }
]